ISS (ZARYA)             
1 25544U 98067A   26048.82815417  .00009688  00000+0  18560-3 0  9999
2 25544  51.6322 170.5300 0010976 108.9064 251.3115 15.48671179553255
CSS (TIANHE)            
1 48274U 21035A   26048.93637015  .00024301  00000+0  29745-3 0  9999
2 48274  41.4680 328.2755 0004286 129.9510 230.1706 15.59803307274529
ISS (NAUKA)             
1 49044U 21066A   26048.82815417  .00009688  00000+0  18560-3 0  9995
2 49044  51.6322 170.5300 0010976 108.9064 251.3115 15.48671179230449
FREGAT DEB              
1 49271U 11037PF  26048.03913288  .00038169  00000+0  60296-1 0  9999
2 49271  51.6522   2.5988 0940927  11.9451 350.2139 12.38826834210135
CSS (WENTIAN)           
1 53239U 22085A   26048.93637015  .00024301  00000+0  29745-3 0  9992
2 53239  41.4680 328.2755 0004286 129.9510 230.1706 15.59803307173849
CSS (MENGTIAN)          
1 54216U 22143A   26048.93637015  .00024301  00000+0  29745-3 0  9993
2 54216  41.4680 328.2755 0004286 129.9510 230.1706 15.59803307158646
PROGRESS-MS 31          
1 64751U 25146A   26048.82815417  .00009688  00000+0  18560-3 0  9990
2 64751  51.6322 170.5300 0010976 108.9064 251.3115 15.48671179  6756
TIANZHOU-9              
1 64786U 25149A   26048.93637015  .00024301  00000+0  29745-3 0  9995
2 64786  41.4680 328.2755 0004286 129.9510 230.1706 15.59803307255300
DRAGON CRS-33           
1 65304U 25186A   26048.82815417  .00009688  00000+0  18560-3 0  9999
2 65304  51.6322 170.5300 0010976 108.9064 251.3115 15.48671179   115
PROGRESS-MS 32          
1 65586U 25204A   26048.82815417  .00009688  00000+0  18560-3 0  9992
2 65586  51.6322 170.5300 0010976 108.9064 251.3115 15.48671179   274
CYGNUS NG-23            
1 65616U 25208A   26048.82815417  .00009688  00000+0  18560-3 0  9990
2 65616  51.6322 170.5300 0010976 108.9064 251.3115 15.48671179   223
ISS OBJECT XK           
1 65731U 98067XK  26048.53635888  .00320003  48857-4  10450-2 0  9994
2 65731  51.6225 153.5012 0006253 341.9502  18.1281 15.90104525 23673
