CCSDS_OMM_VERS = 2.0
CREATION_DATE  = 
ORIGINATOR     = 

OBJECT_NAME    = ISS (ZARYA)
OBJECT_ID      = 1998-067A
CENTER_NAME    = EARTH
REF_FRAME      = TEME
TIME_SYSTEM    = UTC
MEAN_ELEMENT_THEORY = SGP/SGP4

EPOCH          = 2026-02-17T19:52:32.520288
MEAN_MOTION    = 15.48671179
ECCENTRICITY   = .00109766
INCLINATION    = 51.6322
RA_OF_ASC_NODE = 170.5300
ARG_OF_PERICENTER = 108.9064
MEAN_ANOMALY   = 251.3115

EPHEMERIS_TYPE = 0
CLASSIFICATION_TYPE = U
NORAD_CAT_ID   = 25544
ELEMENT_SET_NO = 999
REV_AT_EPOCH   = 55325
BSTAR          = .18560473E-3
MEAN_MOTION_DOT = .9688E-4
MEAN_MOTION_DDOT = 0

CCSDS_OMM_VERS = 2.0
CREATION_DATE  = 
ORIGINATOR     = 

OBJECT_NAME    = CSS (TIANHE)
OBJECT_ID      = 2021-035A
CENTER_NAME    = EARTH
REF_FRAME      = TEME
TIME_SYSTEM    = UTC
MEAN_ELEMENT_THEORY = SGP/SGP4

EPOCH          = 2026-02-17T22:28:22.380960
MEAN_MOTION    = 15.59803307
ECCENTRICITY   = .00042862
INCLINATION    = 41.4680
RA_OF_ASC_NODE = 328.2755
ARG_OF_PERICENTER = 129.9510
MEAN_ANOMALY   = 230.1706

EPHEMERIS_TYPE = 0
CLASSIFICATION_TYPE = U
NORAD_CAT_ID   = 48274
ELEMENT_SET_NO = 999
REV_AT_EPOCH   = 27452
BSTAR          = .29745033E-3
MEAN_MOTION_DOT = .24301E-3
MEAN_MOTION_DDOT = 0

CCSDS_OMM_VERS = 2.0
CREATION_DATE  = 
ORIGINATOR     = 

OBJECT_NAME    = ISS (NAUKA)
OBJECT_ID      = 2021-066A
CENTER_NAME    = EARTH
REF_FRAME      = TEME
TIME_SYSTEM    = UTC
MEAN_ELEMENT_THEORY = SGP/SGP4

EPOCH          = 2026-02-17T19:52:32.520288
MEAN_MOTION    = 15.48671179
ECCENTRICITY   = .00109766
INCLINATION    = 51.6322
RA_OF_ASC_NODE = 170.5300
ARG_OF_PERICENTER = 108.9064
MEAN_ANOMALY   = 251.3115

EPHEMERIS_TYPE = 0
CLASSIFICATION_TYPE = U
NORAD_CAT_ID   = 49044
ELEMENT_SET_NO = 999
REV_AT_EPOCH   = 23044
BSTAR          = .18560473E-3
MEAN_MOTION_DOT = .9688E-4
MEAN_MOTION_DDOT = 0

CCSDS_OMM_VERS = 2.0
CREATION_DATE  = 
ORIGINATOR     = 

OBJECT_NAME    = FREGAT DEB
OBJECT_ID      = 2011-037PF
CENTER_NAME    = EARTH
REF_FRAME      = TEME
TIME_SYSTEM    = UTC
MEAN_ELEMENT_THEORY = SGP/SGP4

EPOCH          = 2026-02-17T00:56:21.080832
MEAN_MOTION    = 12.38826834
ECCENTRICITY   = .09409272
INCLINATION    = 51.6522
RA_OF_ASC_NODE = 2.5988
ARG_OF_PERICENTER = 11.9451
MEAN_ANOMALY   = 350.2139

EPHEMERIS_TYPE = 0
CLASSIFICATION_TYPE = U
NORAD_CAT_ID   = 49271
ELEMENT_SET_NO = 999
REV_AT_EPOCH   = 21013
BSTAR          = .60296196E-1
MEAN_MOTION_DOT = .38169E-3
MEAN_MOTION_DDOT = 0

CCSDS_OMM_VERS = 2.0
CREATION_DATE  = 
ORIGINATOR     = 

OBJECT_NAME    = CSS (WENTIAN)
OBJECT_ID      = 2022-085A
CENTER_NAME    = EARTH
REF_FRAME      = TEME
TIME_SYSTEM    = UTC
MEAN_ELEMENT_THEORY = SGP/SGP4

EPOCH          = 2026-02-17T22:28:22.380960
MEAN_MOTION    = 15.59803307
ECCENTRICITY   = .00042862
INCLINATION    = 41.4680
RA_OF_ASC_NODE = 328.2755
ARG_OF_PERICENTER = 129.9510
MEAN_ANOMALY   = 230.1706

EPHEMERIS_TYPE = 0
CLASSIFICATION_TYPE = U
NORAD_CAT_ID   = 53239
ELEMENT_SET_NO = 999
REV_AT_EPOCH   = 17384
BSTAR          = .29745033E-3
MEAN_MOTION_DOT = .24301E-3
MEAN_MOTION_DDOT = 0

CCSDS_OMM_VERS = 2.0
CREATION_DATE  = 
ORIGINATOR     = 

OBJECT_NAME    = CSS (MENGTIAN)
OBJECT_ID      = 2022-143A
CENTER_NAME    = EARTH
REF_FRAME      = TEME
TIME_SYSTEM    = UTC
MEAN_ELEMENT_THEORY = SGP/SGP4

EPOCH          = 2026-02-17T22:28:22.380960
MEAN_MOTION    = 15.59803307
ECCENTRICITY   = .00042862
INCLINATION    = 41.4680
RA_OF_ASC_NODE = 328.2755
ARG_OF_PERICENTER = 129.9510
MEAN_ANOMALY   = 230.1706

EPHEMERIS_TYPE = 0
CLASSIFICATION_TYPE = U
NORAD_CAT_ID   = 54216
ELEMENT_SET_NO = 999
REV_AT_EPOCH   = 15864
BSTAR          = .29745033E-3
MEAN_MOTION_DOT = .24301E-3
MEAN_MOTION_DDOT = 0

CCSDS_OMM_VERS = 2.0
CREATION_DATE  = 
ORIGINATOR     = 

OBJECT_NAME    = PROGRESS-MS 31
OBJECT_ID      = 2025-146A
CENTER_NAME    = EARTH
REF_FRAME      = TEME
TIME_SYSTEM    = UTC
MEAN_ELEMENT_THEORY = SGP/SGP4

EPOCH          = 2026-02-17T19:52:32.520288
MEAN_MOTION    = 15.48671179
ECCENTRICITY   = .00109766
INCLINATION    = 51.6322
RA_OF_ASC_NODE = 170.5300
ARG_OF_PERICENTER = 108.9064
MEAN_ANOMALY   = 251.3115

EPHEMERIS_TYPE = 0
CLASSIFICATION_TYPE = U
NORAD_CAT_ID   = 64751
ELEMENT_SET_NO = 999
REV_AT_EPOCH   = 675
BSTAR          = .18560473E-3
MEAN_MOTION_DOT = .9688E-4
MEAN_MOTION_DDOT = 0

CCSDS_OMM_VERS = 2.0
CREATION_DATE  = 
ORIGINATOR     = 

OBJECT_NAME    = TIANZHOU-9
OBJECT_ID      = 2025-149A
CENTER_NAME    = EARTH
REF_FRAME      = TEME
TIME_SYSTEM    = UTC
MEAN_ELEMENT_THEORY = SGP/SGP4

EPOCH          = 2026-02-17T22:28:22.380960
MEAN_MOTION    = 15.59803307
ECCENTRICITY   = .00042862
INCLINATION    = 41.4680
RA_OF_ASC_NODE = 328.2755
ARG_OF_PERICENTER = 129.9510
MEAN_ANOMALY   = 230.1706

EPHEMERIS_TYPE = 0
CLASSIFICATION_TYPE = U
NORAD_CAT_ID   = 64786
ELEMENT_SET_NO = 999
REV_AT_EPOCH   = 25530
BSTAR          = .29745033E-3
MEAN_MOTION_DOT = .24301E-3
MEAN_MOTION_DDOT = 0

CCSDS_OMM_VERS = 2.0
CREATION_DATE  = 
ORIGINATOR     = 

OBJECT_NAME    = DRAGON CRS-33
OBJECT_ID      = 2025-186A
CENTER_NAME    = EARTH
REF_FRAME      = TEME
TIME_SYSTEM    = UTC
MEAN_ELEMENT_THEORY = SGP/SGP4

EPOCH          = 2026-02-17T19:52:32.520288
MEAN_MOTION    = 15.48671179
ECCENTRICITY   = .00109766
INCLINATION    = 51.6322
RA_OF_ASC_NODE = 170.5300
ARG_OF_PERICENTER = 108.9064
MEAN_ANOMALY   = 251.3115

EPHEMERIS_TYPE = 0
CLASSIFICATION_TYPE = U
NORAD_CAT_ID   = 65304
ELEMENT_SET_NO = 999
REV_AT_EPOCH   = 11
BSTAR          = .18560473E-3
MEAN_MOTION_DOT = .9688E-4
MEAN_MOTION_DDOT = 0

CCSDS_OMM_VERS = 2.0
CREATION_DATE  = 
ORIGINATOR     = 

OBJECT_NAME    = PROGRESS-MS 32
OBJECT_ID      = 2025-204A
CENTER_NAME    = EARTH
REF_FRAME      = TEME
TIME_SYSTEM    = UTC
MEAN_ELEMENT_THEORY = SGP/SGP4

EPOCH          = 2026-02-17T19:52:32.520288
MEAN_MOTION    = 15.48671179
ECCENTRICITY   = .00109766
INCLINATION    = 51.6322
RA_OF_ASC_NODE = 170.5300
ARG_OF_PERICENTER = 108.9064
MEAN_ANOMALY   = 251.3115

EPHEMERIS_TYPE = 0
CLASSIFICATION_TYPE = U
NORAD_CAT_ID   = 65586
ELEMENT_SET_NO = 999
REV_AT_EPOCH   = 27
BSTAR          = .18560473E-3
MEAN_MOTION_DOT = .9688E-4
MEAN_MOTION_DDOT = 0

CCSDS_OMM_VERS = 2.0
CREATION_DATE  = 
ORIGINATOR     = 

OBJECT_NAME    = CYGNUS NG-23
OBJECT_ID      = 2025-208A
CENTER_NAME    = EARTH
REF_FRAME      = TEME
TIME_SYSTEM    = UTC
MEAN_ELEMENT_THEORY = SGP/SGP4

EPOCH          = 2026-02-17T19:52:32.520288
MEAN_MOTION    = 15.48671179
ECCENTRICITY   = .00109766
INCLINATION    = 51.6322
RA_OF_ASC_NODE = 170.5300
ARG_OF_PERICENTER = 108.9064
MEAN_ANOMALY   = 251.3115

EPHEMERIS_TYPE = 0
CLASSIFICATION_TYPE = U
NORAD_CAT_ID   = 65616
ELEMENT_SET_NO = 999
REV_AT_EPOCH   = 22
BSTAR          = .18560473E-3
MEAN_MOTION_DOT = .9688E-4
MEAN_MOTION_DDOT = 0

CCSDS_OMM_VERS = 2.0
CREATION_DATE  = 
ORIGINATOR     = 

OBJECT_NAME    = ISS OBJECT XK
OBJECT_ID      = 1998-067XK
CENTER_NAME    = EARTH
REF_FRAME      = TEME
TIME_SYSTEM    = UTC
MEAN_ELEMENT_THEORY = SGP/SGP4

EPOCH          = 2026-02-17T12:52:21.407232
MEAN_MOTION    = 15.90104525
ECCENTRICITY   = .0006253
INCLINATION    = 51.6225
RA_OF_ASC_NODE = 153.5012
ARG_OF_PERICENTER = 341.9502
MEAN_ANOMALY   = 18.1281

EPHEMERIS_TYPE = 0
CLASSIFICATION_TYPE = U
NORAD_CAT_ID   = 65731
ELEMENT_SET_NO = 999
REV_AT_EPOCH   = 2367
BSTAR          = .1045E-2
MEAN_MOTION_DOT = .320003E-2
MEAN_MOTION_DDOT = .48857E-4

